COMMENT,ORIGINATOR,NORAD_CAT_ID,OBJECT_NAME,OBJECT_TYPE,CLASSIFICATION_TYPE,INTLDES,EPOCH,EPOCH_MICROSECONDS,MEAN_MOTION,ECCENTRICITY,INCLINATION,RA_OF_ASC_NODE,ARG_OF_PERICENTER,MEAN_ANOMALY,EPHEMERIS_TYPE,ELEMENT_SET_NO,REV_AT_EPOCH,BSTAR,MEAN_MOTION_DOT,MEAN_MOTION_DDOT,FILE,TLE_LINE0,TLE_LINE1,TLE_LINE2,OBJECT_ID,OBJECT_NUMBER,SEMIMAJOR_AXIS,PERIOD,APOGEE,PERIGEE,DECAYED
"GENERATED VIA SPACETRACK.ORG API","18 SPCS","55097","SPACEBEE-160","PAYLOAD","U","23001CS","2024-01-31 03:47:27","68352","15.32486703","0.0010694","97.4428","95.6174","282.7531","77.2515","0","999","5985","0.0010629","0.00033428","0","4175715","0 SPACEBEE-160","1 55097U 23001CS  24031.15795218  .00033428  00000-0  10629-2 0  9990","2 55097  97.4428  95.6174 0010694 282.7531  77.2515 15.32486703 59855","2023-001CS","55097","6846.533","93.965","475.720","461.076","0"
"GENERATED VIA SPACETRACK.ORG API","18 SPCS","55097","SPACEBEE-160","PAYLOAD","U","23001CS","2024-01-31 10:03:33","48864","15.32505067","0.0010679","97.4428","95.8802","281.766","78.2383","0","999","5989","0.0010763","0.00033871","0","4176118","0 SPACEBEE-160","1 55097U 23001CS  24031.41913251  .00033871  00000-0  10763-2 0  9999","2 55097  97.4428  95.8802 0010679 281.7660  78.2383 15.32505067 59893","2023-001CS","55097","6846.478","93.964","475.655","461.032","0"
"GENERATED VIA SPACETRACK.ORG API","18 SPCS","55097","SPACEBEE-160","PAYLOAD","U","23001CS","2024-02-01 09:33:53","394624","15.32564842","0.0010818","97.4427","96.8647","278.1474","81.854","0","999","6004","0.00097926","0.00030857","0","4176780","0 SPACEBEE-160","1 55097U 23001CS  24032.39853466  .00030857  00000-0  97926-3 0  9996","2 55097  97.4427  96.8647 0010818 278.1474  81.8540 15.32564842 60048","2023-001CS","55097","6846.300","93.960","475.571","460.759","0"
"GENERATED VIA SPACETRACK.ORG API","18 SPCS","55097","SPACEBEE-160","PAYLOAD","U","23001CS","2024-02-01 09:33:53","394624","15.32564842","0.0010818","97.4427","96.8647","278.1474","81.854","0","999","6004","0.00097926","0.00030857","0","4176807","0 SPACEBEE-160","1 55097U 23001CS  24032.39853466  .00030857  00000-0  97926-3 0  9996","2 55097  97.4427  96.8647 0010818 278.1474  81.8540 15.32564842 60048","2023-001CS","55097","6846.300","93.960","475.571","460.759","0"
"GENERATED VIA SPACETRACK.ORG API","18 SPCS","55097","SPACEBEE-160","PAYLOAD","U","23001CS","2024-02-01 14:15:57","31776","15.32580022","0.0010685","97.4433","97.0626","276.6327","83.3698","0","999","6007","0.0010591","0.00033405","0","4177080","0 SPACEBEE-160","1 55097U 23001CS  24032.59441009  .00033405  00000-0  10591-2 0  9998","2 55097  97.4433  97.0626 0010685 276.6327  83.3698 15.32580022 60079","2023-001CS","55097","6846.255","93.959","475.435","460.805","0"
"GENERATED VIA SPACETRACK.ORG API","18 SPCS","55097","SPACEBEE-160","PAYLOAD","U","23001CS","2024-02-02 02:48:06","98400","15.32613436","0.0010666","97.4431","97.5881","274.4527","85.5496","0","999","6015","0.0010465","0.0003304","0","4177630","0 SPACEBEE-160","1 55097U 23001CS  24033.11673725  .00033040  00000-0  10465-2 0  9994","2 55097  97.4431  97.5881 0010666 274.4527  85.5496 15.32613436 60157","2023-001CS","55097","6846.155","93.957","475.323","460.718","0"
"GENERATED VIA SPACETRACK.ORG API","18 SPCS","55097","SPACEBEE-160","PAYLOAD","U","23001CS","2024-02-02 16:54:15","90048","15.32651157","0.0010629","97.4431","98.179","272.0744","87.9281","0","999","6024","0.00098613","0.00031158","0","4177939","0 SPACEBEE-160","1 55097U 23001CS  24033.70434132  .00031158  00000-0  98613-3 0  9996","2 55097  97.4431  98.1790 0010629 272.0744  87.9281 15.32651157 60247","2023-001CS","55097","6846.043","93.955","475.185","460.631","0"
"GENERATED VIA SPACETRACK.ORG API","18 SPCS","55097","SPACEBEE-160","PAYLOAD","U","23001CS","2024-02-02 21:36:17","819136","15.32662903","0.0010623","97.443","98.376","271.2873","88.7152","0","999","6027","0.0010068","0.00031827","0","4177944","0 SPACEBEE-160","1 55097U 23001CS  24033.90020624  .00031827  00000-0  10068-2 0  9995","2 55097  97.4430  98.3760 0010623 271.2873  88.7152 15.32662903 60273","2023-001CS","55097","6846.008","93.954","475.146","460.601","0"
"GENERATED VIA SPACETRACK.ORG API","18 SPCS","55097","SPACEBEE-160","PAYLOAD","U","23001CS","2024-02-03 10:08:24","472608","15.32693837","0.0010589","97.4429","98.9011","269.2197","90.7832","0","999","6035","0.00093967","0.0002972","0","4178485","0 SPACEBEE-160","1 55097U 23001CS  24034.42250547  .00029720  00000-0  93967-3 0  9991","2 55097  97.4429  98.9011 0010589 269.2197  90.7832 15.32693837 60350","2023-001CS","55097","6845.916","93.952","475.030","460.532","0"
"GENERATED VIA SPACETRACK.ORG API","18 SPCS","55097","SPACEBEE-160","PAYLOAD","U","23001CS","2024-02-03 14:50:26","716128","15.32707684","0.00106","97.4429","99.0982","268.4853","91.5175","0","999","6038","0.00097283","0.00030789","0","4178824","0 SPACEBEE-160","1 55097U 23001CS  24034.61836477  .00030789  00000-0  97283-3 0  9996","2 55097  97.4429  99.0982 0010600 268.4853  91.5175 15.32707684 60381","2023-001CS","55097","6845.875","93.951","474.996","460.483","0"
"GENERATED VIA SPACETRACK.ORG API","18 SPCS","55097","SPACEBEE-160","PAYLOAD","U","23001CS","2024-02-04 03:22:32","15712","15.32742553","0.0010647","97.4431","99.6235","266.5916","93.4108","0","999","6046","0.0010738","0.00034045","0","4179073","0 SPACEBEE-160","1 55097U 23001CS  24035.14064833  .00034045  00000-0  10738-2 0  9992","2 55097  97.4431  99.6235 0010647 266.5916  93.4108 15.32742553 60461","2023-001CS","55097","6845.771","93.949","474.925","460.347","0"
"GENERATED VIA SPACETRACK.ORG API","18 SPCS","55097","SPACEBEE-160","PAYLOAD","U","23001CS","2024-02-04 03:22:32","15712","15.32742553","0.0010647","97.4431","99.6235","266.5916","93.4108","0","999","6046","0.0010738","0.00034045","0","4179372","0 SPACEBEE-160","1 55097U 23001CS  24035.14064833  .00034045  00000-0  10738-2 0  9992","2 55097  97.4431  99.6235 0010647 266.5916  93.4108 15.32742553 60461","2023-001CS","55097","6845.771","93.949","474.925","460.347","0"
"GENERATED VIA SPACETRACK.ORG API","18 SPCS","55097","SPACEBEE-160","PAYLOAD","U","23001CS","2024-02-04 15:54:36","240480","15.3278081","0.0010641","97.443","100.1491","264.5977","95.4051","0","999","6054","0.0011456","0.00036382","0","4179687","0 SPACEBEE-160","1 55097U 23001CS  24035.66291945  .00036382  00000-0  11456-2 0  9999","2 55097  97.4430 100.1491 0010641 264.5977  95.4051 15.32780810 60547","2023-001CS","55097","6845.657","93.947","474.807","460.238","0"
"GENERATED VIA SPACETRACK.ORG API","18 SPCS","55097","SPACEBEE-160","PAYLOAD","U","23001CS","2024-02-05 12:16:40","620000","15.32846309","0.0010601","97.4433","101.003","261.3885","98.6155","0","999","6067","0.001229","0.0003913","0","4180276","0 SPACEBEE-160","1 55097U 23001CS  24036.51158125  .00039130  00000-0  12290-2 0  9997","2 55097  97.4433 101.0030 0010601 261.3885  98.6155 15.32846309 60678","2023-001CS","55097","6845.462","93.943","474.584","460.070","0"
"GENERATED VIA SPACETRACK.ORG API","18 SPCS","55097","SPACEBEE-160","PAYLOAD","U","23001CS","2024-02-05 12:16:40","620000","15.32846309","0.0010601","97.4433","101.003","261.3885","98.6155","0","999","6067","0.001229","0.0003913","0","4180290","0 SPACEBEE-160","1 55097U 23001CS  24036.51158125  .00039130  00000-0  12290-2 0  9997","2 55097  97.4433 101.0030 0010601 261.3885  98.6155 15.32846309 60678","2023-001CS","55097","6845.462","93.943","474.584","460.070","0"
"GENERATED VIA SPACETRACK.ORG API","18 SPCS","55097","SPACEBEE-160","PAYLOAD","U","23001CS","2024-02-05 20:06:41","436576","15.3287326","0.0010594","97.4433","101.3314","260.1293","99.8753","0","999","6072","0.001284","0.00040928","0","4180535","0 SPACEBEE-160","1 55097U 23001CS  24036.83797959  .00040928  00000-0  12840-2 0  9994","2 55097  97.4433 101.3314 0010594 260.1293  99.8753 15.32873260 60726","2023-001CS","55097","6845.382","93.941","474.499","459.995","0"
"GENERATED VIA SPACETRACK.ORG API","18 SPCS","55097","SPACEBEE-160","PAYLOAD","U","23001CS","2024-02-06 10:12:41","642208","15.32923914","0.0010596","97.4431","101.9227","257.8174","102.1882","0","999","6081","0.0013462","0.00042995","0","4181108","0 SPACEBEE-160","1 55097U 23001CS  24037.42548197  .00042995  00000-0  13462-2 0  9995","2 55097  97.4431 101.9227 0010596 257.8174 102.1882 15.32923914 60819","2023-001CS","55097","6845.231","93.938","474.349","459.843","0"
"GENERATED VIA SPACETRACK.ORG API","18 SPCS","55097","SPACEBEE-160","PAYLOAD","U","23001CS","2024-02-06 16:28:41","183328","15.32946218","0.0010625","97.4432","102.1854","256.9197","103.0859","0","999","6085","0.0012856","0.00041075","0","4181420","0 SPACEBEE-160","1 55097U 23001CS  24037.68658777  .00041075  00000-0  12856-2 0  9993","2 55097  97.4432 102.1854 0010625 256.9197 103.0859 15.32946218 60857","2023-001CS","55097","6845.165","93.937","474.303","459.757","0"
"GENERATED VIA SPACETRACK.ORG API","18 SPCS","55097","SPACEBEE-160","PAYLOAD","U","23001CS","2024-02-06 16:28:41","183328","15.32946218","0.0010625","97.4432","102.1854","256.9197","103.0859","0","999","6085","0.0012856","0.00041075","0","4181430","0 SPACEBEE-160","1 55097U 23001CS  24037.68658777  .00041075  00000-0  12856-2 0  9993","2 55097  97.4432 102.1854 0010625 256.9197 103.0859 15.32946218 60857","2023-001CS","55097","6845.165","93.937","474.303","459.757","0"
"GENERATED VIA SPACETRACK.ORG API","18 SPCS","55097","SPACEBEE-160","PAYLOAD","U","23001CS","2024-02-07 03:26:39","587136","15.32987396","0.0010653","97.443","102.6451","255.2392","104.767","0","999","6092","0.001378","0.00044107","0","4182068","0 SPACEBEE-160","1 55097U 23001CS  24038.14351374  .00044107  00000-0  13780-2 0  9994","2 55097  97.4430 102.6451 0010653 255.2392 104.7670 15.32987396 60922","2023-001CS","55097","6845.042","93.934","474.199","459.615","0"
